{
  "type": "FeatureCollection",
  "metadata": {
    "timestamp": "2026-10-05T07:51:05.343Z",
    "source": "Sachet - National Disaster Alert Portal",
    "count": 1
  },
  "features": [
    {
      "type": "Feature",
      "properties": {
        "severity": "WATCH",
        "identifier": 1791180628026033,
        "effective_start_time": "Mon Oct 05 11:40:00 IST 2026",
        "effective_end_time": "Mon Oct 05 14:40:00 IST 2026",
        "disaster_type": "Moderate Rain",
        "area_description": "Canacona , Netravali ,",
        "severity_level": "Very Likely",
        "type": 0,
        "actual_lang": "en",
        "warning_message": "Moderate Rain is very likely to occur at a few places over South Goa in next 3 hours.",
        "disseminated": "false",
        "severity_color": "yellow",
        "alert_id_sdma_autoinc": 150314,
        "centroid": "74.10927441696053,15.05192116564747",
        "alert_source": "IMD Goa",
        "area_covered": "724.41",
        "sender_org_id": "33"
      },
      "geometry": {
        "type": "MultiPolygon",
        "coordinates": [
          [
            [
              [
                74.271265,
                14.999144
              ],
              [
                74.271026,
                14.998808
              ],
              [
                74.271173,
                14.998147
              ],
              [
                74.270959,
                14.995824
              ],
              [
                74.270652,
                14.994891
              ],
              [
                74.26644,
                14.992951
              ],
              [
                74.261711,
                14.990761
              ],
              [
                74.269674,
                14.981864
              ],
              [
                74.268282,
                14.966735
              ],
              [
                74.266586,
                14.966821
              ],
              [
                74.264344,
                14.963249
              ],
              [
                74.262735,
                14.959219
              ],
              [
                74.25991,
                14.957895
              ],
              [
                74.256599,
                14.958422
              ],
              [
                74.251006,
                14.96082
              ],
              [
                74.2464,
                14.958661
              ],
              [
                74.243865,
                14.95749
              ],
              [
                74.24231,
                14.949651
              ],
              [
                74.203971,
                14.93169
              ],
              [
                74.204056,
                14.9321
              ],
              [
                74.204163,
                14.937851
              ],
              [
                74.197419,
                14.94327
              ],
              [
                74.192482,
                14.945009
              ],
              [
                74.190276,
                14.951719
              ],
              [
                74.186561,
                14.953381
              ],
              [
                74.180367,
                14.95305
              ],
              [
                74.172157,
                14.95101
              ],
              [
                74.169898,
                14.9473
              ],
              [
                74.169661,
                14.942181
              ],
              [
                74.166099,
                14.939442
              ],
              [
                74.165962,
                14.936761
              ],
              [
                74.173837,
                14.91794
              ],
              [
                74.174039,
                14.917668
              ],
              [
                74.167101,
                14.914418
              ],
              [
                74.16272,
                14.913536
              ],
              [
                74.153892,
                14.91727
              ],
              [
                74.149224,
                14.918521
              ],
              [
                74.145705,
                14.917432
              ],
              [
                74.139397,
                14.920461
              ],
              [
                74.136222,
                14.919661
              ],
              [
                74.133423,
                14.915948
              ],
              [
                74.132042,
                14.91265
              ],
              [
                74.126526,
                14.913211
              ],
              [
                74.122741,
                14.912641
              ],
              [
                74.117332,
                14.909612
              ],
              [
                74.113082,
                14.91116
              ],
              [
                74.104173,
                14.90375
              ],
              [
                74.103358,
                14.901585
              ],
              [
                74.093859,
                14.899673
              ],
              [
                74.043197,
                14.975318
              ],
              [
                74.043197,
                14.97653
              ],
              [
                74.042923,
                14.97653
              ],
              [
                74.042923,
                14.97681
              ],
              [
                74.042641,
                14.976806
              ],
              [
                74.042641,
                14.977084
              ],
              [
                74.042358,
                14.977081
              ],
              [
                74.042358,
                14.97764
              ],
              [
                74.042075,
                14.97764
              ],
              [
                74.042075,
                14.97875
              ],
              [
                74.041809,
                14.97875
              ],
              [
                74.041809,
                14.97903
              ],
              [
                74.041526,
                14.979028
              ],
              [
                74.041526,
                14.979584
              ],
              [
                74.041253,
                14.979584
              ],
              [
                74.041253,
                14.979862
              ],
              [
                74.04097,
                14.97986
              ],
              [
                74.04097,
                14.98014
              ],
              [
                74.040694,
                14.980138
              ],
              [
                74.040694,
                14.980694
              ],
              [
                74.040414,
                14.980694
              ],
              [
                74.040414,
                14.980972
              ],
              [
                74.040138,
                14.980961
              ],
              [
                74.040138,
                14.98125
              ],
              [
                74.039856,
                14.98125
              ],
              [
                74.039856,
                14.98153
              ],
              [
                74.039582,
                14.98153
              ],
              [
                74.039582,
                14.981811
              ],
              [
                74.038851,
                14.981807
              ],
              [
                74.03875,
                14.981958
              ],
              [
                74.03875,
                14.982084
              ],
              [
                74.038666,
                14.982084
              ],
              [
                74.036992,
                14.984582
              ],
              [
                74.037362,
                14.984582
              ],
              [
                74.037362,
                14.984862
              ],
              [
                74.037918,
                14.98486
              ],
              [
                74.037918,
                14.985143
              ],
              [
                74.038192,
                14.985143
              ],
              [
                74.038192,
                14.985421
              ],
              [
                74.039017,
                14.985421
              ],
              [
                74.039017,
                14.98486
              ],
              [
                74.039306,
                14.984862
              ],
              [
                74.039306,
                14.984306
              ],
              [
                74.039856,
                14.984311
              ],
              [
                74.039856,
                14.984031
              ],
              [
                74.041253,
                14.984031
              ],
              [
                74.041253,
                14.984311
              ],
              [
                74.041809,
                14.984306
              ],
              [
                74.041809,
                14.984582
              ],
              [
                74.042075,
                14.984582
              ],
              [
                74.042075,
                14.985143
              ],
              [
                74.042641,
                14.985143
              ],
              [
                74.042641,
                14.985421
              ],
              [
                74.042916,
                14.985416
              ],
              [
                74.042916,
                14.985694
              ],
              [
                74.043472,
                14.985694
              ],
              [
                74.043472,
                14.985972
              ],
              [
                74.043762,
                14.98597
              ],
              [
                74.043762,
                14.987091
              ],
              [
                74.044029,
                14.987082
              ],
              [
                74.044029,
                14.988473
              ],
              [
                74.045136,
                14.988473
              ],
              [
                74.045136,
                14.988195
              ],
              [
                74.045692,
                14.988195
              ],
              [
                74.045692,
                14.987916
              ],
              [
                74.046303,
                14.987916
              ],
              [
                74.046508,
                14.987921
              ],
              [
                74.046517,
                14.9878
              ],
              [
                74.046524,
                14.987638
              ],
              [
                74.046859,
                14.987638
              ],
              [
                74.04708,
                14.987641
              ],
              [
                74.04708,
                14.987531
              ],
              [
                74.04708,
                14.98736
              ],
              [
                74.047418,
                14.98736
              ],
              [
                74.047919,
                14.98736
              ],
              [
                74.047944,
                14.987091
              ],
              [
                74.048471,
                14.987091
              ],
              [
                74.048493,
                14.986811
              ],
              [
                74.049309,
                14.986811
              ],
              [
                74.049309,
                14.986531
              ],
              [
                74.049859,
                14.986531
              ],
              [
                74.049859,
                14.987921
              ],
              [
                74.050141,
                14.987916
              ],
              [
                74.050141,
                14.988195
              ],
              [
                74.049859,
                14.988195
              ],
              [
                74.049859,
                14.988473
              ],
              [
                74.049309,
                14.988473
              ],
              [
                74.049309,
                14.988195
              ],
              [
                74.048471,
                14.988195
              ],
              [
                74.048471,
                14.988473
              ],
              [
                74.047919,
                14.98847
              ],
              [
                74.047919,
                14.988751
              ],
              [
                74.04708,
                14.988751
              ],
              [
                74.04708,
                14.989031
              ],
              [
                74.046508,
                14.989031
              ],
              [
                74.046508,
                14.989311
              ],
              [
                74.044168,
                14.989304
              ],
              [
                74.044029,
                14.989311
              ],
              [
                74.044029,
                14.989031
              ],
              [
                74.042923,
                14.989031
              ],
              [
                74.042923,
                14.988751
              ],
              [
                74.040694,
                14.988751
              ],
              [
                74.040694,
                14.988195
              ],
              [
                74.040414,
                14.988195
              ],
              [
                74.040414,
                14.987916
              ],
              [
                74.039856,
                14.987921
              ],
              [
                74.039856,
                14.98736
              ],
              [
                74.039582,
                14.98736
              ],
              [
                74.039582,
                14.986811
              ],
              [
                74.039306,
                14.986811
              ],
              [
                74.039306,
                14.986531
              ],
              [
                74.039017,
                14.986531
              ],
              [
                74.039017,
                14.98597
              ],
              [
                74.038483,
                14.98597
              ],
              [
                74.038483,
                14.98625
              ],
              [
                74.038192,
                14.98625
              ],
              [
                74.038192,
                14.986531
              ],
              [
                74.037918,
                14.986531
              ],
              [
                74.037918,
                14.988751
              ],
              [
                74.037629,
                14.988751
              ],
              [
                74.037629,
                14.989311
              ],
              [
                74.037362,
                14.989304
              ],
              [
                74.037362,
                14.989861
              ],
              [
                74.037086,
                14.989861
              ],
              [
                74.037086,
                14.990695
              ],
              [
                74.036797,
                14.99069
              ],
              [
                74.036797,
                14.991251
              ],
              [
                74.03653,
                14.991251
              ],
              [
                74.03653,
                14.991812
              ],
              [
                74.036248,
                14.991812
              ],
              [
                74.036248,
                14.992361
              ],
              [
                74.035972,
                14.992361
              ],
              [
                74.035972,
                14.992921
              ],
              [
                74.035698,
                14.992917
              ],
              [
                74.035698,
                14.993195
              ],
              [
                74.035423,
                14.993188
              ],
              [
                74.035423,
                14.993751
              ],
              [
                74.03514,
                14.993751
              ],
              [
                74.03514,
                14.994031
              ],
              [
                74.03486,
                14.994029
              ],
              [
                74.03486,
                14.994583
              ],
              [
                74.034584,
                14.994583
              ],
              [
                74.034584,
                14.995695
              ],
              [
                74.03431,
                14.995691
              ],
              [
                74.034301,
                14.996251
              ],
              [
                74.034028,
                14.996251
              ],
              [
                74.034028,
                14.996812
              ],
              [
                74.033752,
                14.996805
              ],
              [
                74.033752,
                14.997361
              ],
              [
                74.033469,
                14.997361
              ],
              [
                74.033469,
                14.99753
              ],
              [
                74.033469,
                14.997922
              ],
              [
                74.033196,
                14.997917
              ],
              [
                74.033196,
                14.998471
              ],
              [
                74.032913,
                14.998471
              ],
              [
                74.032913,
                14.999032
              ],
              [
                74.032761,
                14.99903
              ],
              [
                74.032357,
                14.999032
              ],
              [
                74.032357,
                14.999321
              ],
              [
                74.031525,
                14.999305
              ],
              [
                74.031525,
                14.999583
              ],
              [
                74.030135,
                14.999583
              ],
              [
                74.030135,
                14.999305
              ],
              [
                74.029296,
                14.999321
              ],
              [
                74.029296,
                14.999032
              ],
              [
                74.028763,
                14.999032
              ],
              [
                74.028763,
                14.998751
              ],
              [
                74.028474,
                14.998751
              ],
              [
                74.028474,
                14.998471
              ],
              [
                74.028198,
                14.998471
              ],
              [
                74.028191,
                14.998195
              ],
              [
                74.027915,
                14.998195
              ],
              [
                74.027915,
                14.998136
              ],
              [
                74.027122,
                14.99932
              ],
              [
                74.027642,
                14.999305
              ],
              [
                74.027642,
                14.999583
              ],
              [
                74.028198,
                14.999581
              ],
              [
                74.028198,
                14.999861
              ],
              [
                74.028763,
                14.999861
              ],
              [
                74.028763,
                15.000139
              ],
              [
                74.02903,
                15.000139
              ],
              [
                74.02903,
                15.00042
              ],
              [
                74.029296,
                15.00042
              ],
              [
                74.029296,
                15.000971
              ],
              [
                74.029861,
                15.000971
              ],
              [
                74.029861,
                15.001249
              ],
              [
                74.029586,
                15.001249
              ],
              [
                74.029586,
                15.001851
              ],
              [
                74.029586,
                15.002084
              ],
              [
                74.029328,
                15.002084
              ],
              [
                74.028747,
                15.002084
              ],
              [
                74.028747,
                15.001806
              ],
              [
                74.028474,
                15.00181
              ],
              [
                74.028474,
                15.00153
              ],
              [
                74.028198,
                15.001527
              ],
              [
                74.028198,
                15.002362
              ],
              [
                74.027642,
                15.002359
              ],
              [
                74.027642,
                15.00264
              ],
              [
                74.027076,
                15.00264
              ],
              [
                74.027076,
                15.002359
              ],
              [
                74.026803,
                15.002362
              ],
              [
                74.026803,
                15.002084
              ],
              [
                74.026527,
                15.002084
              ],
              [
                74.026527,
                15.001806
              ],
              [
                74.025971,
                15.00181
              ],
              [
                74.025971,
                15.000971
              ],
              [
                74.025688,
                15.000971
              ],
              [
                74.025688,
                15.000859
              ],
              [
                74.025413,
                15.001109
              ],
              [
                74.025413,
                15.002362
              ],
              [
                74.025139,
                15.002359
              ],
              [
                74.025139,
                15.00264
              ],
              [
                74.024583,
                15.00264
              ],
              [
                74.024583,
                15.00292
              ],
              [
                74.024307,
                15.002915
              ],
              [
                74.024307,
                15.003472
              ],
              [
                74.024857,
                15.003469
              ],
              [
                74.024857,
                15.003752
              ],
              [
                74.025399,
                15.003752
              ],
              [
                74.025399,
                15.003469
              ],
              [
                74.025971,
                15.003469
              ],
              [
                74.025971,
                15.003752
              ],
              [
                74.026254,
                15.003752
              ],
              [
                74.026254,
                15.00403
              ],
              [
                74.026527,
                15.004028
              ],
              [
                74.026527,
                15.00434
              ],
              [
                74.026527,
                15.005138
              ],
              [
                74.026803,
                15.00514
              ],
              [
                74.026803,
                15.005694
              ],
              [
                74.027076,
                15.005691
              ],
              [
                74.027076,
                15.00653
              ],
              [
                74.026803,
                15.00653
              ],
              [
                74.026803,
                15.006811
              ],
              [
                74.026527,
                15.006806
              ],
              [
                74.026527,
                15.007362
              ],
              [
                74.025971,
                15.00736
              ],
              [
                74.025971,
                15.00792
              ],
              [
                74.025695,
                15.007916
              ],
              [
                74.025695,
                15.008472
              ],
              [
                74.025399,
                15.00847
              ],
              [
                74.025399,
                15.00875
              ],
              [
                74.025139,
                15.00875
              ],
              [
                74.025139,
                15.00903
              ],
              [
                74.024857,
                15.00903
              ],
              [
                74.024857,
                15.009311
              ],
              [
                74.024307,
                15.009306
              ],
              [
                74.024307,
                15.009584
              ],
              [
                74.024025,
                15.009584
              ],
              [
                74.024025,
                15.00986
              ],
              [
                74.023482,
                15.00986
              ],
              [
                74.023482,
                15.01014
              ],
              [
                74.023193,
                15.01014
              ],
              [
                74.023193,
                15.010421
              ],
              [
                74.022919,
                15.010416
              ],
              [
                74.022919,
                15.010694
              ],
              [
                74.022637,
                15.010694
              ],
              [
                74.022637,
                15.010972
              ],
              [
                74.022087,
                15.01097
              ],
              [
                74.022087,
                15.011262
              ],
              [
                74.021798,
                15.011262
              ],
              [
                74.021798,
                15.011531
              ],
              [
                74.021249,
                15.011531
              ],
              [
                74.021249,
                15.011811
              ],
              [
                74.020973,
                15.011806
              ],
              [
                74.020973,
                15.012082
              ],
              [
                74.018753,
                15.012082
              ],
              [
                74.018753,
                15.012362
              ],
              [
                74.017356,
                15.01236
              ],
              [
                74.017356,
                15.012641
              ],
              [
                74.016807,
                15.012638
              ],
              [
                74.016807,
                15.013194
              ],
              [
                74.017082,
                15.013194
              ],
              [
                74.017082,
                15.013472
              ],
              [
                74.017356,
                15.01347
              ],
              [
                74.017356,
                15.01375
              ],
              [
                74.017638,
                15.01375
              ],
              [
                74.017638,
                15.014031
              ],
              [
                74.016251,
                15.014031
              ],
              [
                74.016251,
                15.01375
              ],
              [
                74.015977,
                15.01375
              ],
              [
                74.015977,
                15.01347
              ],
              [
                74.015694,
                15.013472
              ],
              [
                74.015694,
                15.012916
              ],
              [
                74.015419,
                15.012921
              ],
              [
                74.015419,
                15.012641
              ],
              [
                74.014863,
                15.012641
              ],
              [
                74.014863,
                15.01208
              ],
              [
                74.01458,
                15.012082
              ],
              [
                74.01458,
                15.011528
              ],
              [
                74.014313,
                15.011531
              ],
              [
                74.014313,
                15.011207
              ],
              [
                74.007362,
                15.01753
              ],
              [
                74.007362,
                15.017921
              ],
              [
                74.006933,
                15.017921
              ],
              [
                73.98986,
                15.033452
              ],
              [
                73.98986,
                15.033472
              ],
              [
                73.990143,
                15.03347
              ],
              [
                73.990143,
                15.034311
              ],
              [
                73.98986,
                15.034306
              ],
              [
                73.98986,
                15.034862
              ],
              [
                73.989578,
                15.03486
              ],
              [
                73.989578,
                15.03625
              ],
              [
                73.989295,
                15.03625
              ],
              [
                73.989295,
                15.03653
              ],
              [
                73.989029,
                15.03653
              ],
              [
                73.989029,
                15.036811
              ],
              [
                73.988746,
                15.036806
              ],
              [
                73.988746,
                15.03736
              ],
              [
                73.988472,
                15.03736
              ],
              [
                73.988472,
                15.038201
              ],
              [
                73.988197,
                15.038201
              ],
              [
                73.988197,
                15.039031
              ],
              [
                73.987923,
                15.039031
              ],
              [
                73.987923,
                15.039311
              ],
              [
                73.987641,
                15.039306
              ],
              [
                73.987641,
                15.039582
              ],
              [
                73.987923,
                15.03958
              ],
              [
                73.987923,
                15.040141
              ],
              [
                73.987641,
                15.040138
              ],
              [
                73.987641,
                15.040694
              ],
              [
                73.987358,
                15.040694
              ],
              [
                73.987358,
                15.041251
              ],
              [
                73.987075,
                15.041241
              ],
              [
                73.987075,
                15.041811
              ],
              [
                73.986809,
                15.041811
              ],
              [
                73.986809,
                15.042641
              ],
              [
                73.986526,
                15.042639
              ],
              [
                73.986526,
                15.043195
              ],
              [
                73.986253,
                15.04319
              ],
              [
                73.986253,
                15.043751
              ],
              [
                73.98597,
                15.043751
              ],
              [
                73.98597,
                15.044307
              ],
              [
                73.985694,
                15.044307
              ],
              [
                73.985694,
                15.044583
              ],
              [
                73.985421,
                15.04458
              ],
              [
                73.985421,
                15.045421
              ],
              [
                73.985138,
                15.045421
              ],
              [
                73.985138,
                15.046251
              ],
              [
                73.984862,
                15.046251
              ],
              [
                73.984862,
                15.046531
              ],
              [
                73.984582,
                15.046527
              ],
              [
                73.984582,
                15.047083
              ],
              [
                73.984306,
                15.047081
              ],
              [
                73.984306,
                15.047639
              ],
              [
                73.984024,
                15.047639
              ],
              [
                73.984024,
                15.048195
              ],
              [
                73.98375,
                15.048191
              ],
              [
                73.98375,
                15.048751
              ],
              [
                73.983483,
                15.048751
              ],
              [
                73.983483,
                15.04931
              ],
              [
                73.983192,
                15.04931
              ],
              [
                73.983192,
                15.049861
              ],
              [
                73.982918,
                15.049861
              ],
              [
                73.982918,
                15.050141
              ],
              [
                73.98236,
                15.050139
              ],
              [
                73.98236,
                15.050695
              ],
              [
                73.982086,
                15.050695
              ],
              [
                73.982086,
                15.050971
              ],
              [
                73.981797,
                15.050971
              ],
              [
                73.981797,
                15.051251
              ],
              [
                73.98153,
                15.051251
              ],
              [
                73.98153,
                15.051532
              ],
              [
                73.980972,
                15.051532
              ],
              [
                73.980972,
                15.05181
              ],
              [
                73.980416,
                15.051805
              ],
              [
                73.980416,
                15.052099
              ],
              [
                73.980416,
                15.052361
              ],
              [
                73.979217,
                15.052361
              ],
              [
                73.978196,
                15.052361
              ],
              [
                73.978196,
                15.052083
              ],
              [
                73.977637,
                15.052083
              ],
              [
                73.977637,
                15.051805
              ],
              [
                73.977357,
                15.05181
              ],
              [
                73.977357,
                15.051532
              ],
              [
                73.977081,
                15.051532
              ],
              [
                73.977081,
                15.051251
              ],
              [
                73.976516,
                15.051251
              ],
              [
                73.976516,
                15.050971
              ],
              [
                73.976249,
                15.050971
              ],
              [
                73.976249,
                15.050695
              ],
              [
                73.975693,
                15.050695
              ],
              [
                73.975693,
                15.050417
              ],
              [
                73.974586,
                15.050417
              ],
              [
                73.974586,
                15.050695
              ],
              [
                73.97403,
                15.050695
              ],
              [
                73.97403,
                15.050971
              ],
              [
                73.972642,
                15.050971
              ],
              [
                73.972642,
                15.051251
              ],
              [
                73.972076,
                15.051251
              ],
              [
                73.972076,
                15.051532
              ],
              [
                73.97181,
                15.051532
              ],
              [
                73.971803,
                15.05181
              ],
              [
                73.971527,
                15.051805
              ],
              [
                73.971527,
                15.052083
              ],
              [
                73.971254,
                15.052083
              ],
              [
                73.971254,
                15.052361
              ],
              [
                73.970971,
                15.052361
              ],
              [
                73.970971,
                15.05292
              ],
              [
                73.970704,
                15.05292
              ],
              [
                73.970704,
                15.054312
              ],
              [
                73.970971,
                15.054305
              ],
              [
                73.970971,
                15.054583
              ],
              [
                73.971254,
                15.054581
              ],
              [
                73.971254,
                15.05681
              ],
              [
                73.970971,
                15.056806
              ],
              [
                73.970971,
                15.057084
              ],
              [
                73.970695,
                15.057084
              ],
              [
                73.970695,
                15.057362
              ],
              [
                73.970413,
                15.057362
              ],
              [
                73.970413,
                15.058472
              ],
              [
                73.970139,
                15.058472
              ],
              [
                73.970139,
                15.059862
              ],
              [
                73.969856,
                15.05986
              ],
              [
                73.969856,
                15.06014
              ],
              [
                73.969581,
                15.06014
              ],
              [
                73.969581,
                15.06042
              ],
              [
                73.969025,
                15.060416
              ],
              [
                73.969025,
                15.060972
              ],
              [
                73.968751,
                15.06097
              ],
              [
                73.968751,
                15.06125
              ],
              [
                73.968482,
                15.06125
              ],
              [
                73.968482,
                15.06153
              ],
              [
                73.967637,
                15.06153
              ],
              [
                73.967637,
                15.061811
              ],
              [
                73.967361,
                15.061806
              ],
              [
                73.967361,
                15.062084
              ],
              [
                73.966798,
                15.06208
              ],
              [
                73.966798,
                15.062371
              ],
              [
                73.966249,
                15.062371
              ],
              [
                73.966249,
                15.062921
              ],
              [
                73.966529,
                15.062916
              ],
              [
                73.966529,
                15.063194
              ],
              [
                73.966798,
                15.063189
              ],
              [
                73.966798,
                15.063472
              ],
              [
                73.967087,
                15.063472
              ],
              [
                73.967087,
                15.064311
              ],
              [
                73.967361,
                15.064311
              ],
              [
                73.967361,
                15.06514
              ],
              [
                73.967087,
                15.065138
              ],
              [
                73.967087,
                15.065592
              ],
              [
                73.967087,
                15.065694
              ],
              [
                73.966805,
                15.065694
              ],
              [
                73.966805,
                15.065972
              ],
              [
                73.966278,
                15.065972
              ],
              [
                73.964585,
                15.065972
              ],
              [
                73.964585,
                15.065694
              ],
              [
                73.964302,
                15.065694
              ],
              [
                73.964302,
                15.065972
              ],
              [
                73.963753,
                15.06597
              ],
              [
                73.963753,
                15.066253
              ],
              [
                73.96347,
                15.066253
              ],
              [
                73.96347,
                15.066531
              ],
              [
                73.962905,
                15.066531
              ],
              [
                73.962905,
                15.066811
              ],
              [
                73.962349,
                15.066811
              ],
              [
                73.962349,
                15.06736
              ],
              [
                73.962082,
                15.06736
              ],
              [
                73.962082,
                15.067641
              ],
              [
                73.961533,
                15.067641
              ],
              [
                73.961533,
                15.067921
              ],
              [
                73.96125,
                15.067916
              ],
              [
                73.96125,
                15.068194
              ],
              [
                73.960419,
                15.068194
              ],
              [
                73.960419,
                15.068473
              ],
              [
                73.960136,
                15.06847
              ],
              [
                73.960136,
                15.068751
              ],
              [
                73.959603,
                15.068751
              ],
              [
                73.959603,
                15.069031
              ],
              [
                73.959031,
                15.069029
              ],
              [
                73.959031,
                15.069582
              ],
              [
                73.958748,
                15.06958
              ],
              [
                73.958748,
                15.070141
              ],
              [
                73.957643,
                15.070141
              ],
              [
                73.957643,
                15.069861
              ],
              [
                73.955696,
                15.069861
              ],
              [
                73.955696,
                15.070141
              ],
              [
                73.954308,
                15.070141
              ],
              [
                73.954308,
                15.070421
              ],
              [
                73.95375,
                15.070417
              ],
              [
                73.95375,
                15.07069
              ],
              [
                73.953469,
                15.070702
              ],
              [
                73.953469,
                15.071543
              ],
              [
                73.95375,
                15.071543
              ],
              [
                73.95375,
                15.071811
              ],
              [
                73.954032,
                15.071811
              ],
              [
                73.954032,
                15.072641
              ],
              [
                73.95375,
                15.072641
              ],
              [
                73.95375,
                15.072919
              ],
              [
                73.953476,
                15.072917
              ],
              [
                73.953476,
                15.073195
              ],
              [
                73.952918,
                15.073195
              ],
              [
                73.952918,
                15.073471
              ],
              [
                73.951812,
                15.073491
              ],
              [
                73.951812,
                15.073751
              ],
              [
                73.951247,
                15.073751
              ],
              [
                73.951247,
                15.074031
              ],
              [
                73.950967,
                15.074031
              ],
              [
                73.950967,
                15.074309
              ],
              [
                73.950418,
                15.074305
              ],
              [
                73.950418,
                15.074583
              ],
              [
                73.950142,
                15.074583
              ],
              [
                73.950142,
                15.074861
              ],
              [
                73.949593,
                15.074861
              ],
              [
                73.949593,
                15.075141
              ],
              [
                73.948471,
                15.075141
              ],
              [
                73.948471,
                15.075419
              ],
              [
                73.943749,
                15.075419
              ],
              [
                73.943749,
                15.075401
              ],
              [
                73.923752,
                15.093592
              ],
              [
                73.923752,
                15.09375
              ],
              [
                73.924028,
                15.09375
              ],
              [
                73.924028,
                15.094585
              ],
              [
                73.923752,
                15.09458
              ],
              [
                73.923752,
                15.09486
              ],
              [
                73.924028,
                15.09486
              ],
              [
                73.924028,
                15.095141
              ],
              [
                73.924308,
                15.095141
              ],
              [
                73.924308,
                15.095421
              ],
              [
                73.924584,
                15.095416
              ],
              [
                73.924584,
                15.095695
              ],
              [
                73.92514,
                15.095695
              ],
              [
                73.92514,
                15.095973
              ],
              [
                73.925698,
                15.09597
              ],
              [
                73.925698,
                15.096251
              ],
              [
                73.925972,
                15.096251
              ],
              [
                73.925972,
                15.096811
              ],
              [
                73.926247,
                15.096804
              ],
              [
                73.926238,
                15.099131
              ],
              [
                73.926238,
                15.100141
              ],
              [
                73.925972,
                15.100139
              ],
              [
                73.925972,
                15.100973
              ],
              [
                73.925698,
                15.100971
              ],
              [
                73.925698,
                15.101809
              ],
              [
                73.925416,
                15.101805
              ],
              [
                73.925422,
                15.102361
              ],
              [
                73.92514,
                15.102361
              ],
              [
                73.92514,
                15.103195
              ],
              [
                73.925416,
                15.103195
              ],
              [
                73.925422,
                15.103751
              ],
              [
                73.92514,
                15.103751
              ],
              [
                73.92514,
                15.104312
              ],
              [
                73.924857,
                15.104305
              ],
              [
                73.924857,
                15.104583
              ],
              [
                73.924028,
                15.104583
              ],
              [
                73.924028,
                15.104861
              ],
              [
                73.923752,
                15.104861
              ],
              [
                73.923752,
                15.105142
              ],
              [
                73.92318,
                15.105142
              ],
              [
                73.92318,
                15.105422
              ],
              [
                73.92292,
                15.105417
              ],
              [
                73.92292,
                15.105695
              ],
              [
                73.922601,
                15.105695
              ],
              [
                73.92312,
                15.110142
              ],
              [
                73.92514,
                15.110142
              ],
              [
                73.92514,
                15.11042
              ],
              [
                73.92653,
                15.110415
              ],
              [
                73.92653,
                15.110696
              ],
              [
                73.926804,
                15.110696
              ],
              [
                73.926804,
                15.110972
              ],
              [
                73.92736,
                15.110972
              ],
              [
                73.92736,
                15.111252
              ],
              [
                73.927918,
                15.111252
              ],
              [
                73.927918,
                15.11153
              ],
              [
                73.92875,
                15.11153
              ],
              [
                73.92875,
                15.11181
              ],
              [
                73.929862,
                15.111806
              ],
              [
                73.929862,
                15.112084
              ],
              [
                73.930421,
                15.112082
              ],
              [
                73.930421,
                15.112362
              ],
              [
                73.93097,
                15.112362
              ],
              [
                73.93097,
                15.11264
              ],
              [
                73.931526,
                15.11264
              ],
              [
                73.931526,
                15.11292
              ],
              [
                73.931809,
                15.112918
              ],
              [
                73.931809,
                15.113194
              ],
              [
                73.932082,
                15.113194
              ],
              [
                73.932082,
                15.113472
              ],
              [
                73.932374,
                15.11346
              ],
              [
                73.932374,
                15.11375
              ],
              [
                73.933197,
                15.11375
              ],
              [
                73.933197,
                15.11346
              ],
              [
                73.933746,
                15.113472
              ],
              [
                73.933746,
                15.113194
              ],
              [
                73.934028,
                15.113194
              ],
              [
                73.934028,
                15.112918
              ],
              [
                73.934304,
                15.11292
              ],
              [
                73.934304,
                15.11264
              ],
              [
                73.934594,
                15.11264
              ],
              [
                73.934594,
                15.112362
              ],
              [
                73.935143,
                15.112362
              ],
              [
                73.935143,
                15.11264
              ],
              [
                73.935692,
                15.112638
              ],
              [
                73.935692,
                15.113194
              ],
              [
                73.935966,
                15.113191
              ],
              [
                73.935966,
                15.114311
              ],
              [
                73.936248,
                15.114311
              ],
              [
                73.936248,
                15.11625
              ],
              [
                73.936531,
                15.11625
              ],
              [
                73.936531,
                15.116528
              ],
              [
                73.936814,
                15.116521
              ],
              [
                73.936814,
                15.11764
              ],
              [
                73.937363,
                15.117638
              ],
              [
                73.937363,
                15.118194
              ],
              [
                73.937636,
                15.118192
              ],
              [
                73.937636,
                15.11875
              ],
              [
                73.938751,
                15.11875
              ],
              [
                73.938751,
                15.119031
              ],
              [
                73.939027,
                15.119031
              ],
              [
                73.939027,
                15.119311
              ],
              [
                73.939858,
                15.119306
              ],
              [
                73.939858,
                15.119582
              ],
              [
                73.940665,
                15.11958
              ],
              [
                73.940697,
                15.121531
              ],
              [
                73.940415,
                15.121529
              ],
              [
                73.940415,
                15.122085
              ],
              [
                73.939858,
                15.122085
              ],
              [
                73.939858,
                15.124583
              ],
              [
                73.939583,
                15.12458
              ],
              [
                73.939583,
                15.125973
              ],
              [
                73.939858,
                15.125973
              ],
              [
                73.939858,
                15.126531
              ],
              [
                73.940139,
                15.126527
              ],
              [
                73.940139,
                15.127083
              ],
              [
                73.940408,
                15.127081
              ],
              [
                73.940408,
                15.127641
              ],
              [
                73.940139,
                15.127641
              ],
              [
                73.940139,
                15.127919
              ],
              [
                73.939583,
                15.127917
              ],
              [
                73.939583,
                15.128195
              ],
              [
                73.939309,
                15.12819
              ],
              [
                73.939309,
                15.128749
              ],
              [
                73.939027,
                15.128749
              ],
              [
                73.939027,
                15.129309
              ],
              [
                73.938468,
                15.129305
              ],
              [
                73.938468,
                15.129583
              ],
              [
                73.938179,
                15.129581
              ],
              [
                73.938179,
                15.129861
              ],
              [
                73.937636,
                15.129861
              ],
              [
                73.937636,
                15.130141
              ],
              [
                73.93708,
                15.130139
              ],
              [
                73.93708,
                15.131527
              ],
              [
                73.936814,
                15.13152
              ],
              [
                73.936814,
                15.13181
              ],
              [
                73.936248,
                15.13181
              ],
              [
                73.936248,
                15.13152
              ],
              [
                73.935692,
                15.13152
              ],
              [
                73.935692,
                15.13181
              ],
              [
                73.935143,
                15.131805
              ],
              [
                73.935143,
                15.132361
              ],
              [
                73.93541,
                15.132361
              ],
              [
                73.93541,
                15.13292
              ],
              [
                73.935692,
                15.132917
              ],
              [
                73.935692,
                15.133193
              ],
              [
                73.935966,
                15.133191
              ],
              [
                73.935966,
                15.133752
              ],
              [
                73.936248,
                15.133752
              ],
              [
                73.936248,
                15.13403
              ],
              [
                73.936531,
                15.13403
              ],
              [
                73.936531,
                15.13431
              ],
              [
                73.938179,
                15.13431
              ],
              [
                73.938179,
                15.13459
              ],
              [
                73.938751,
                15.13459
              ],
              [
                73.938751,
                15.134861
              ],
              [
                73.939583,
                15.134861
              ],
              [
                73.939583,
                15.13514
              ],
              [
                73.940139,
                15.13514
              ],
              [
                73.940139,
                15.135422
              ],
              [
                73.941253,
                15.135418
              ],
              [
                73.941253,
                15.135696
              ],
              [
                73.941529,
                15.135691
              ],
              [
                73.941529,
                15.136249
              ],
              [
                73.941803,
                15.136249
              ],
              [
                73.941803,
                15.13653
              ],
              [
                73.942092,
                15.13653
              ],
              [
                73.942092,
                15.13681
              ],
              [
                73.942361,
                15.136806
              ],
              [
                73.942361,
                15.137362
              ],
              [
                73.942641,
                15.137362
              ],
              [
                73.942641,
                15.13792
              ],
              [
                73.942917,
                15.13792
              ],
              [
                73.942917,
                15.13903
              ],
              [
                73.943191,
                15.13903
              ],
              [
                73.943191,
                15.139313
              ],
              [
                73.943749,
                15.139306
              ],
              [
                73.943749,
                15.139584
              ],
              [
                73.944032,
                15.139582
              ],
              [
                73.944032,
                15.14014
              ],
              [
                73.943749,
                15.14014
              ],
              [
                73.943749,
                15.14042
              ],
              [
                73.944032,
                15.140418
              ],
              [
                73.944032,
                15.140972
              ],
              [
                73.944314,
                15.14097
              ],
              [
                73.944314,
                15.14125
              ],
              [
                73.944863,
                15.14125
              ],
              [
                73.944863,
                15.14153
              ],
              [
                73.945137,
                15.14153
              ],
              [
                73.945137,
                15.141811
              ],
              [
                73.945686,
                15.141811
              ],
              [
                73.945686,
                15.14236
              ],
              [
                73.946251,
                15.14236
              ],
              [
                73.946251,
                15.14264
              ],
              [
                73.947083,
                15.14264
              ],
              [
                73.947083,
                15.143194
              ],
              [
                73.947366,
                15.143194
              ],
              [
                73.947366,
                15.14375
              ],
              [
                73.947639,
                15.14375
              ],
              [
                73.947639,
                15.144311
              ],
              [
                73.947915,
                15.144306
              ],
              [
                73.947915,
                15.144862
              ],
              [
                73.948196,
                15.14486
              ],
              [
                73.948196,
                15.145421
              ],
              [
                73.948471,
                15.145416
              ],
              [
                73.948471,
                15.145972
              ],
              [
                73.948196,
                15.14597
              ],
              [
                73.948196,
                15.147363
              ],
              [
                73.947906,
                15.147363
              ],
              [
                73.947906,
                15.147921
              ],
              [
                73.947639,
                15.147921
              ],
              [
                73.947639,
                15.149031
              ],
              [
                73.94735,
                15.149031
              ],
              [
                73.94735,
                15.149311
              ],
              [
                73.947083,
                15.149304
              ],
              [
                73.947083,
                15.14986
              ],
              [
                73.94735,
                15.14986
              ],
              [
                73.94735,
                15.150141
              ],
              [
                73.947083,
                15.150139
              ],
              [
                73.947083,
                15.150973
              ],
              [
                73.946808,
                15.15097
              ],
              [
                73.946808,
                15.151811
              ],
              [
                73.946534,
                15.151811
              ],
              [
                73.946534,
                15.152921
              ],
              [
                73.946251,
                15.152921
              ],
              [
                73.946251,
                15.153751
              ],
              [
                73.945969,
                15.153751
              ],
              [
                73.945969,
                15.155141
              ],
              [
                73.945693,
                15.155139
              ],
              [
                73.945693,
                15.155695
              ],
              [
                73.94542,
                15.15569
              ],
              [
                73.94542,
                15.156251
              ],
              [
                73.945137,
                15.156251
              ],
              [
                73.945137,
                15.156812
              ],
              [
                73.944863,
                15.156805
              ],
              [
                73.944863,
                15.157083
              ],
              [
                73.944581,
                15.157083
              ],
              [
                73.944581,
                15.158195
              ],
              [
                73.944305,
                15.158195
              ],
              [
                73.944305,
                15.158471
              ],
              [
                73.944032,
                15.158471
              ],
              [
                73.944032,
                15.161821
              ],
              [
                73.943749,
                15.161805
              ],
              [
                73.943749,
                15.162083
              ],
              [
                73.944032,
                15.162081
              ],
              [
                73.944032,
                15.16264
              ],
              [
                73.943749,
                15.16264
              ],
              [
                73.943749,
                15.16375
              ],
              [
                73.943473,
                15.16375
              ],
              [
                73.943473,
                15.164584
              ],
              [
                73.943191,
                15.164584
              ],
              [
                73.943191,
                15.165694
              ],
              [
                73.942917,
                15.165691
              ],
              [
                73.942917,
                15.16681
              ],
              [
                73.942641,
                15.16681
              ],
              [
                73.942641,
                15.16903
              ],
              [
                73.942361,
                15.169028
              ],
              [
                73.942361,
                15.170972
              ],
              [
                73.942092,
                15.17097
              ],
              [
                73.942092,
                15.171811
              ],
              [
                73.941803,
                15.171806
              ],
              [
                73.941803,
                15.172362
              ],
              [
                73.941529,
                15.172362
              ],
              [
                73.941529,
                15.173194
              ],
              [
                73.941246,
                15.173192
              ],
              [
                73.941246,
                15.174031
              ],
              [
                73.940971,
                15.174031
              ],
              [
                73.940971,
                15.175141
              ],
              [
                73.940697,
                15.175141
              ],
              [
                73.940697,
                15.176251
              ],
              [
                73.940415,
                15.176251
              ],
              [
                73.940415,
                15.177361
              ],
              [
                73.940139,
                15.177361
              ],
              [
                73.940139,
                15.178751
              ],
              [
                73.939858,
                15.178751
              ],
              [
                73.939858,
                15.179583
              ],
              [
                73.939583,
                15.179583
              ],
              [
                73.939583,
                15.180973
              ],
              [
                73.939309,
                15.180973
              ],
              [
                73.939309,
                15.182083
              ],
              [
                73.939027,
                15.182083
              ],
              [
                73.939027,
                15.183195
              ],
              [
                73.938751,
                15.183191
              ],
              [
                73.938751,
                15.184032
              ],
              [
                73.938468,
                15.184027
              ],
              [
                73.938468,
                15.184583
              ],
              [
                73.938179,
                15.184581
              ],
              [
                73.938179,
                15.185141
              ],
              [
                73.937919,
                15.185141
              ],
              [
                73.937919,
                15.186251
              ],
              [
                73.937636,
                15.186251
              ],
              [
                73.937636,
                15.187361
              ],
              [
                73.937363,
                15.187361
              ],
              [
                73.937363,
                15.18903
              ],
              [
                73.93708,
                15.189027
              ],
              [
                73.93708,
                15.189584
              ],
              [
                73.936807,
                15.189584
              ],
              [
                73.936807,
                15.190972
              ],
              [
                73.936531,
                15.190972
              ],
              [
                73.936531,
                15.191806
              ],
              [
                73.936248,
                15.191801
              ],
              [
                73.936248,
                15.19292
              ],
              [
                73.935975,
                15.192918
              ],
              [
                73.935975,
                15.194584
              ],
              [
                73.935692,
                15.194584
              ],
              [
                73.935692,
                15.195689
              ],
              [
                73.93541,
                15.195701
              ],
              [
                73.93541,
                15.196811
              ],
              [
                73.935143,
                15.196806
              ],
              [
                73.935143,
                15.198472
              ],
              [
                73.93486,
                15.198472
              ],
              [
                73.93486,
                15.199901
              ],
              [
                74.280016,
                15.094228
              ],
              [
                74.271265,
                14.999144
              ]
            ]
          ]
        ]
      }
    }
  ]
}